ORBCOMM FM20            
1 25416U 98046D   25280.71992461  .00001390  00000+0  50754-3 0  9997
2 25416  44.9956   8.2606 0002147 204.4774 155.5972 14.37454491420452
ORBCOMM FM16            
1 25417U 98046E   25280.71876006  .00001829  00000+0  62966-3 0  9999
2 25417  44.9951 358.3298 0005039 171.7308 188.3624 14.39247987420467
ORBCOMM FM15            
1 25418U 98046F   25280.72301236  .00001775  00000+0  61674-3 0  9994
2 25418  44.9983   3.7938 0004805 172.2192 187.8732 14.38881029420455
ORBCOMM FM14            
1 25419U 98046G   25280.71179397  .00001753  00000+0  60497-3 0  9993
2 25419  44.9966   1.7528 0003622 177.8998 182.1867 14.39272890420426
ORBCOMM FM13            
1 25420U 98046H   25280.71705782  .00001666  00000+0  59283-3 0  9992
2 25420  44.9989  10.8197 0005005 146.2275 213.8892 14.37957183419433
ORBCOMM FM21            
1 25475U 98053A   25280.81950921  .00001346  00000+0  49151-3 0  9996
2 25475  45.0075  96.0229 0001841  91.4122 268.6937 14.37586778413451
ORBCOMM FM22            
1 25476U 98053B   25280.84234022  .00001850  00000+0  64345-3 0  9999
2 25476  45.0059  89.8356 0003446  85.7430 274.3812 14.38700075413495
ORBCOMM FM23            
1 25477U 98053C   25280.80503720  .00001579  00000+0  56605-3 0  9998
2 25477  45.0075  98.0467 0002769  79.4022 280.7138 14.37799869413606
